$$SOE
2460714.500000000, A.D. 2025-Feb-08 00:00:00.0000, -5.316017291002611E+09, -3.556214533200154E+09, 5.526506671337152E+07,
2460721.500000000, A.D. 2025-Feb-15 00:00:00.0000, -5.314333244810970E+09, -3.558422035158514E+09, 5.508901297544241E+07,
2460728.500000000, A.D. 2025-Feb-22 00:00:00.0000, -5.312648220585731E+09, -3.560628965986970E+09, 5.491294965126443E+07,
2460735.500000000, A.D. 2025-Mar-01 00:00:00.0000, -5.310962216278686E+09, -3.562835324827803E+09, 5.473687660268474E+07,
2460742.500000000, A.D. 2025-Mar-08 00:00:00.0000, -5.309275228759911E+09, -3.565041110938815E+09, 5.456079354059362E+07,
2460749.500000000, A.D. 2025-Mar-15 00:00:00.0000, -5.307587253839993E+09, -3.567246321857836E+09, 5.438470018045402E+07,
2460756.500000000, A.D. 2025-Mar-22 00:00:00.0000, -5.305898288500443E+09, -3.569450952980154E+09, 5.420859648622060E+07,
2460763.500000000, A.D. 2025-Mar-29 00:00:00.0000, -5.304208331754748E+09, -3.571654999390649E+09, 5.403248260546803E+07,
2460770.500000000, A.D. 2025-Apr-05 00:00:00.0000, -5.302517383814871E+09, -3.573858456812212E+09, 5.385635872211123E+07,
2460777.500000000, A.D. 2025-Apr-12 00:00:00.0000, -5.300825445489133E+09, -3.576061321566231E+09, 5.368022501154709E+07,
2460784.500000000, A.D. 2025-Apr-19 00:00:00.0000, -5.299132517998657E+09, -3.578263590426231E+09, 5.350408164308810E+07,
2460791.500000000, A.D. 2025-Apr-26 00:00:00.0000, -5.297438602940726E+09, -3.580465260567358E+09, 5.332792878790927E+07,
2460798.500000000, A.D. 2025-May-03 00:00:00.0000, -5.295743702285396E+09, -3.582666329592139E+09, 5.315176662343168E+07,
2460805.500000000, A.D. 2025-May-10 00:00:00.0000, -5.294047818376736E+09, -3.584866795623520E+09, 5.297559533203983E+07,
2460812.500000000, A.D. 2025-May-17 00:00:00.0000, -5.292350953902004E+09, -3.587066657505875E+09, 5.279941508728194E+07,
2460819.500000000, A.D. 2025-May-24 00:00:00.0000, -5.290653111654806E+09, -3.589265915168177E+09, 5.262322600706267E+07,
2460826.500000000, A.D. 2025-May-31 00:00:00.0000, -5.288954293674483E+09, -3.591464569838102E+09, 5.244702806085944E+07,
2460833.500000000, A.D. 2025-Jun-07 00:00:00.0000, -5.287254500162664E+09, -3.593662622902043E+09, 5.227082106618810E+07,
2460840.500000000, A.D. 2025-Jun-14 00:00:00.0000, -5.285553730541533E+09, -3.595860074077700E+09, 5.209460493669319E+07,
2460847.500000000, A.D. 2025-Jun-21 00:00:00.0000, -5.283851985437039E+09, -3.598056922170408E+09, 5.191837980294609E+07,
2460854.500000000, A.D. 2025-Jun-28 00:00:00.0000, -5.282149266458871E+09, -3.600253166648361E+09, 5.174214586327291E+07,
2460861.500000000, A.D. 2025-Jul-05 00:00:00.0000, -5.280445575293895E+09, -3.602448807880096E+09, 5.156590328000975E+07,
2460868.500000000, A.D. 2025-Jul-12 00:00:00.0000, -5.278740913304084E+09, -3.604643846839425E+09, 5.138965216466045E+07,
2460875.500000000, A.D. 2025-Jul-19 00:00:00.0000, -5.277035281439337E+09, -3.606838284852736E+09, 5.121339258764887E+07,
2460882.500000000, A.D. 2025-Jul-26 00:00:00.0000, -5.275328680255268E+09, -3.609032123445092E+09, 5.103712458886814E+07,
2460889.500000000, A.D. 2025-Aug-02 00:00:00.0000, -5.273621109970599E+09, -3.611225364263301E+09, 5.086084818490791E+07,
2460896.500000000, A.D. 2025-Aug-09 00:00:00.0000, -5.271912570540707E+09, -3.613418009090374E+09, 5.068456336976719E+07,
2460903.500000000, A.D. 2025-Aug-16 00:00:00.0000, -5.270203061670406E+09, -3.615610060014334E+09, 5.050827009698820E+07,
2460910.500000000, A.D. 2025-Aug-23 00:00:00.0000, -5.268492582473326E+09, -3.617801519734592E+09, 5.033196821794128E+07,
2460917.500000000, A.D. 2025-Aug-30 00:00:00.0000, -5.266781130448949E+09, -3.619992391291635E+09, 5.015565740466690E+07,
2460924.500000000, A.D. 2025-Sep-06 00:00:00.0000, -5.265068701195451E+09, -3.622182676219545E+09, 4.997933726934838E+07,
2460931.500000000, A.D. 2025-Sep-13 00:00:00.0000, -5.263355290529079E+09, -3.624372373604095E+09, 4.980300763099790E+07,
2460938.500000000, A.D. 2025-Sep-20 00:00:00.0000, -5.261640895736845E+09, -3.626561481690644E+09, 4.962666849500322E+07,
2460945.500000000, A.D. 2025-Sep-27 00:00:00.0000, -5.259925514903987E+09, -3.628749998930164E+09, 4.945031990294385E+07,
2460952.500000000, A.D. 2025-Oct-04 00:00:00.0000, -5.258209146332891E+09, -3.630937923923935E+09, 4.927396188188624E+07,
2460959.500000000, A.D. 2025-Oct-11 00:00:00.0000, -5.256491788427123E+09, -3.633125255209768E+09, 4.909759445048356E+07,
2460966.500000000, A.D. 2025-Oct-18 00:00:00.0000, -5.254773439756910E+09, -3.635311991163889E+09, 4.892121763346457E+07,
2460973.500000000, A.D. 2025-Oct-25 00:00:00.0000, -5.253054099166536E+09, -3.637498130007142E+09, 4.874483147257829E+07,
2460980.500000000, A.D. 2025-Nov-01 00:00:00.0000, -5.251333765884247E+09, -3.639683669899643E+09, 4.856843603155947E+07,
2460987.500000000, A.D. 2025-Nov-08 00:00:00.0000, -5.249612439600166E+09, -3.641868609154828E+09, 4.839203138919806E+07,
2460994.500000000, A.D. 2025-Nov-15 00:00:00.0000, -5.247890120364387E+09, -3.644052946630975E+09, 4.821561760198998E+07,
2461001.500000000, A.D. 2025-Nov-22 00:00:00.0000, -5.246166807902639E+09, -3.646236682079677E+09, 4.803919461719418E+07,
2461008.500000000, A.D. 2025-Nov-29 00:00:00.0000, -5.244442500502774E+09, -3.648419815315782E+09, 4.786276224289584E+07,
2461015.500000000, A.D. 2025-Dec-06 00:00:00.0000, -5.242717195749550E+09, -3.650602344344464E+09, 4.768632037264490E+07,
2461022.500000000, A.D. 2025-Dec-13 00:00:00.0000, -5.240990892674088E+09, -3.652784265815361E+09, 4.750986914929199E+07,
2461029.500000000, A.D. 2025-Dec-20 00:00:00.0000, -5.239263591824870E+09, -3.654965576780304E+09, 4.733340883114815E+07,
2461036.500000000, A.D. 2025-Dec-27 00:00:00.0000, -5.237535294334094E+09, -3.657146275162858E+09, 4.715693967061782E+07,
2461043.500000000, A.D. 2026-Jan-03 00:00:00.0000, -5.235806001438575E+09, -3.659326359554736E+09, 4.698046188885784E+07,
2461050.500000000, A.D. 2026-Jan-10 00:00:00.0000, -5.234075714345474E+09, -3.661505829017264E+09, 4.680397568091702E+07,
2461057.500000000, A.D. 2026-Jan-17 00:00:00.0000, -5.232344434210273E+09, -3.663684682978668E+09, 4.662748122262979E+07,
2461064.500000000, A.D. 2026-Jan-24 00:00:00.0000, -5.230612162149039E+09, -3.665862921203625E+09, 4.645097867404723E+07,
2461071.500000000, A.D. 2026-Jan-31 00:00:00.0000, -5.228878899261565E+09, -3.668040543841566E+09, 4.627446817675877E+07,
2461078.500000000, A.D. 2026-Feb-07 00:00:00.0000, -5.227144646603825E+09, -3.670217551610139E+09, 4.609794983489203E+07,
2461085.500000000, A.D. 2026-Feb-14 00:00:00.0000, -5.225409404856713E+09, -3.672393946128245E+09, 4.592142365542912E+07,
2461092.500000000, A.D. 2026-Feb-21 00:00:00.0000, -5.223673173303495E+09, -3.674569729820841E+09, 4.574488945956659E+07,
2461099.500000000, A.D. 2026-Feb-28 00:00:00.0000, -5.221935949200821E+09, -3.676744904241391E+09, 4.556834695896435E+07,
2461106.500000000, A.D. 2026-Mar-07 00:00:00.0000, -5.220197729601827E+09, -3.678919468761615E+09, 4.539179602642536E+07,
2461113.500000000, A.D. 2026-Mar-14 00:00:00.0000, -5.218458512855651E+09, -3.681093421961090E+09, 4.521523671585703E+07,
2461120.500000000, A.D. 2026-Mar-21 00:00:00.0000, -5.216718298000443E+09, -3.683266762818677E+09, 4.503866910493517E+07,
2461127.500000000, A.D. 2026-Mar-28 00:00:00.0000, -5.214977084059286E+09, -3.685439490677052E+09, 4.486209322895527E+07,
2461134.500000000, A.D. 2026-Apr-04 00:00:00.0000, -5.213234869842754E+09, -3.687611604946020E+09, 4.468550908247280E+07,
2461141.500000000, A.D. 2026-Apr-11 00:00:00.0000, -5.211491653984169E+09, -3.689783104904554E+09, 4.450891663439250E+07,
2461148.500000000, A.D. 2026-Apr-18 00:00:00.0000, -5.209747435048153E+09, -3.691953989608281E+09, 4.433231584154797E+07,
2461155.500000000, A.D. 2026-Apr-25 00:00:00.0000, -5.208002211666428E+09, -3.694124257887711E+09, 4.415570665795779E+07,
2461162.500000000, A.D. 2026-May-02 00:00:00.0000, -5.206255982669821E+09, -3.696293908466844E+09, 4.397908903473449E+07,
2461169.500000000, A.D. 2026-May-09 00:00:00.0000, -5.204508747091489E+09, -3.698462940268386E+09, 4.380246289395571E+07,
2461176.500000000, A.D. 2026-May-16 00:00:00.0000, -5.202760503663057E+09, -3.700631352767178E+09, 4.362582805327368E+07,
2461183.500000000, A.D. 2026-May-23 00:00:00.0000, -5.201011249751545E+09, -3.702799145369458E+09, 4.344918418013000E+07,
2461190.500000000, A.D. 2026-May-30 00:00:00.0000, -5.199260981815296E+09, -3.704966315498355E+09, 4.327253099232602E+07,
2461197.500000000, A.D. 2026-Jun-06 00:00:00.0000, -5.197509697696168E+09, -3.707132858659153E+09, 4.309586846646357E+07,
2461204.500000000, A.D. 2026-Jun-13 00:00:00.0000, -5.195757397081899E+09, -3.709298770285362E+09, 4.291919673414207E+07,
2461211.500000000, A.D. 2026-Jun-20 00:00:00.0000, -5.194004080639739E+09, -3.711464046439444E+09, 4.274251595079350E+07,
2461218.500000000, A.D. 2026-Jun-27 00:00:00.0000, -5.192249749519635E+09, -3.713628683708037E+09, 4.256582626490951E+07,
2461225.500000000, A.D. 2026-Jul-04 00:00:00.0000, -5.190494405227147E+09, -3.715792679066529E+09, 4.238912782406116E+07,
2461232.500000000, A.D. 2026-Jul-11 00:00:00.0000, -5.188738049612125E+09, -3.717956029844829E+09, 4.221242078337598E+07,
2461239.500000000, A.D. 2026-Jul-18 00:00:00.0000, -5.186980684880481E+09, -3.720118733768552E+09, 4.203570530979300E+07,
2461246.500000000, A.D. 2026-Jul-25 00:00:00.0000, -5.185222313604612E+09, -3.722280789072843E+09, 4.185898157986093E+07,
2461253.500000000, A.D. 2026-Aug-01 00:00:00.0000, -5.183462938684419E+09, -3.724442194736855E+09, 4.168224976253057E+07,
2461260.500000000, A.D. 2026-Aug-08 00:00:00.0000, -5.181702563044053E+09, -3.726602950874710E+09, 4.150550996416116E+07,
2461267.500000000, A.D. 2026-Aug-15 00:00:00.0000, -5.179941188649465E+09, -3.728763058832425E+09, 4.132876213438725E+07,
2461274.500000000, A.D. 2026-Aug-22 00:00:00.0000, -5.178178815607875E+09, -3.730922519769354E+09, 4.115200610238647E+07,
$$EOE